[{"OBJECT_NAME":"STARLINK-3881","OBJECT_ID":"2022-049X","EPOCH":"2026-03-09T23:17:27.211776","MEAN_MOTION":15.08844569,"ECCENTRICITY":0.00019733,"INCLINATION":53.2189,"RA_OF_ASC_NODE":57.85,"ARG_OF_PERICENTER":119.2801,"MEAN_ANOMALY":240.8388,"EPHEMERIS_TYPE":0,"CLASSIFICATION_TYPE":"U","NORAD_CAT_ID":52472,"ELEMENT_SET_NO":999,"REV_AT_EPOCH":21229,"BSTAR":-5.9160812e-5,"MEAN_MOTION_DOT":-1.23e-5,"MEAN_MOTION_DDOT":0},{"OBJECT_NAME":"KUIPER-00183","OBJECT_ID":"2025-301F","EPOCH":"2026-03-09T22:00:01.999584","MEAN_MOTION":15.28555387,"ECCENTRICITY":0.00143222,"INCLINATION":51.8667,"RA_OF_ASC_NODE":65.0366,"ARG_OF_PERICENTER":58.1585,"MEAN_ANOMALY":99.3056,"EPHEMERIS_TYPE":0,"CLASSIFICATION_TYPE":"U","NORAD_CAT_ID":67138,"ELEMENT_SET_NO":999,"REV_AT_EPOCH":583,"BSTAR":-0.054814766,"MEAN_MOTION_DOT":-0.01408357,"MEAN_MOTION_DDOT":0}]
